#dV2023  1 29 22  0  0.00000000    1682       CTS   FIT  GFZ
## 2247  79200.00000000    30.00000000 59973 0.9166666666667
+    1   L64  0  0  0  0  0  0  0  0  0  0  0  0  0  0  0  0
+          0  0  0  0  0  0  0  0  0  0  0  0  0  0  0  0  0
+          0  0  0  0  0  0  0  0  0  0  0  0  0  0  0  0  0
+          0  0  0  0  0  0  0  0  0  0  0  0  0  0  0  0  0
+          0  0  0  0  0  0  0  0  0  0  0  0  0  0  0  0  0
++         0  0  0  0  0  0  0  0  0  0  0  0  0  0  0  0  0
++         0  0  0  0  0  0  0  0  0  0  0  0  0  0  0  0  0
++         0  0  0  0  0  0  0  0  0  0  0  0  0  0  0  0  0
++         0  0  0  0  0  0  0  0  0  0  0  0  0  0  0  0  0
++         0  0  0  0  0  0  0  0  0  0  0  0  0  0  0  0  0
%c L  cc GPS ccc cccc cccc cccc cccc ccccc ccccc ccccc ccccc
%c cc cc ccc ccc cccc cccc cccc cccc ccccc ccccc ccccc ccccc
%f  0.0000000  0.000000000  0.00000000000  0.000000000000000
%f  0.0000000  0.000000000  0.00000000000  0.000000000000000
%i    0    0    0    0      0      0      0      0         0
%i    0    0    0    0      0      0      0      0         0
/* CCCCCCCCCCCCCCCCCCCCCCCCCCCCCCCCCCCCCCCCCCCCCCCCCCCCCCCCCCCCCCCCCCCCCCCCCCCCC
/* C                             GFZ RSO-ORBIT                                 C
/* C DOI: https://doi.org/10.5880/GFZ_ORBIT/RSO/L64_G_v02                      C
/* C                                                                           C
/* C DORIS        RMS: not applicable                                          C
/* C GNSS-E Code  RMS: not applicable                                          C
/* C GNSS-E Phase RMS: not applicable                                          C
/* C GNSS-G Code  RMS:  48.424 [cm]   Obs.acc.:     13495 Obs.eli.:       901  C
/* C GNSS-G Phase RMS:   3.972 [mm]   Obs.acc.:     13495 Obs.eli.:       901  C
/* C SLR          RMS:   1.637 [cm]   Obs.acc.:         2 Obs.eli.:         0  C
/* C                                                                           C
/* CCCCCCCCCCCCCCCCCCCCCCCCCCCCCCCCCCCCCCCCCCCCCCCCCCCCCCCCCCCCCCCCCCCCCCCCCCCCC
*  2023  1 30  3  6  0.00000000
PL64   -142.420249     92.768161  -6872.281355   3165.040480
VL64 -74219.031481 -16111.057495   1223.982492 999999.999999
*  2023  1 30  3  6 30.00000000
PL64   -365.063941     44.880153  -6864.826733   3165.500336
VL64 -74196.356232 -15811.389310   3745.261506 999999.999999
*  2023  1 30  3  7  0.00000000
PL64   -587.515944     -2.083171  -6849.814178   3165.960296
VL64 -74091.241006 -15494.718152   6262.148505 999999.999999
*  2023  1 30  3  7 30.00000000
PL64   -809.529001    -48.071861  -6827.260969   3166.420235
VL64 -73903.743270 -15161.753125   8771.908854 999999.999999
*  2023  1 30  3  8  0.00000000
PL64  -1030.856166    -93.038122  -6797.192576   3166.880115
VL64 -73634.011329 -14813.221061  11271.818915 999999.999999
*  2023  1 30  3  8 30.00000000
PL64  -1251.251068   -136.936362  -6759.642617   3167.339927
VL64 -73282.281006 -14449.863816  13759.167960 999999.999999
*  2023  1 30  3  9  0.00000000
PL64  -1470.468174   -179.723235  -6714.652827   3167.799671
VL64 -72848.876065 -14072.436994  16231.257942 999999.999999
*  2023  1 30  3  9 30.00000000
PL64  -1688.263060   -221.357683  -6662.273012   3168.259481
VL64 -72334.209894 -13681.709448  18685.406192 999999.999999
*  2023  1 30  3 10  0.00000000
PL64  -1904.392673   -261.800972  -6602.560996   3168.719224
VL64 -71738.785362 -13278.462493  21118.949545 999999.999999
*  2023  1 30  3 10 30.00000000
PL64  -2118.615601   -301.016731  -6535.582560   3169.178945
VL64 -71063.193000 -12863.488675  23529.247761 999999.999999
*  2023  1 30  3 11  0.00000000
PL64  -2330.692337   -338.970979  -6461.411371   3169.638698
VL64 -70308.109508 -12437.589929  25913.685075 999999.999999
*  2023  1 30  3 11 30.00000000
PL64  -2540.385527   -375.632154  -6380.128902   3170.098572
VL64 -69474.297616 -12001.575668  28269.671603 999999.999999
*  2023  1 30  3 12  0.00000000
PL64  -2747.460239   -410.971133  -6291.824356   3170.558636
VL64 -68562.605730 -11556.261579  30594.644957 999999.999999
*  2023  1 30  3 12 30.00000000
PL64  -2951.684213   -444.961246  -6196.594580   3171.018788
VL64 -67573.968563 -11102.469214  32886.071570 999999.999999
*  2023  1 30  3 13  0.00000000
PL64  -3152.828125   -477.578296  -6094.543975   3171.478756
VL64 -66509.408533 -10641.025244  35141.450236 999999.999999
*  2023  1 30  3 13 30.00000000
PL64  -3350.665848   -508.800575  -5985.784392   3171.938454
VL64 -65370.035088 -10172.759828  37358.317095 999999.999999
*  2023  1 30  3 14  0.00000000
PL64  -3544.974713   -538.608866  -5870.435009   3172.398042
VL64 -64157.042189  -9698.505133  39534.249328 999999.999999
*  2023  1 30  3 14 30.00000000
PL64  -3735.535755   -566.986450  -5748.622211   3172.857609
VL64 -62871.705796  -9219.094151  41666.867209 999999.999999
*  2023  1 30  3 15  0.00000000
PL64  -3922.133958   -593.919107  -5620.479457   3173.317367
VL64 -61515.382478  -8735.359540  43753.835347 999999.999999
*  2023  1 30  3 15 30.00000000
PL64  -4104.558497   -619.395115  -5486.147140   3173.777217
VL64 -60089.508980  -8248.132601  45792.864489 999999.999999
*  2023  1 30  3 16  0.00000000
PL64  -4282.602976   -643.405240  -5345.772451   3174.237072
VL64 -58595.601486  -7758.242202  47781.714113 999999.999999
*  2023  1 30  3 16 30.00000000
PL64  -4456.065664   -665.942730  -5199.509226   3174.696866
VL64 -57035.254537  -7266.513638  49718.195091 999999.999999
*  2023  1 30  3 17  0.00000000
PL64  -4624.749733   -687.003304  -5047.517786   3175.156634
VL64 -55410.139639  -6773.767419  51600.172660 999999.999999
*  2023  1 30  3 17 30.00000000
PL64  -4788.463478   -706.585132  -4889.964773   3175.616560
VL64 -53722.003018  -6280.818010  53425.568933 999999.999999
*  2023  1 30  3 18  0.00000000
PL64  -4947.020546   -724.688817  -4727.022975   3176.076819
VL64 -51972.663815  -5788.473041  55192.364146 999999.999999
*  2023  1 30  3 18 30.00000000
PL64  -5100.240148   -741.317375  -4558.871151   3176.537035
VL64 -50164.013861  -5297.532557  56898.598660 999999.999999
*  2023  1 30  3 19  0.00000000
PL64  -5247.947279   -756.476208  -4385.693842   3176.996894
VL64 -48298.016645  -4808.787227  58542.377113 999999.999999
*  2023  1 30  3 19 30.00000000
PL64  -5389.972930   -770.173073  -4207.681175   3177.456568
VL64 -46376.703704  -4323.016265  60121.871543 999999.999999
*  2023  1 30  3 20  0.00000000
PL64  -5526.154281   -782.418047  -4025.028659   3177.916297
VL64 -44402.171976  -3840.986406  61635.322172 999999.999999
*  2023  1 30  3 20 30.00000000
PL64  -5656.334902   -793.223487  -3837.936978   3178.376106
VL64 -42376.582744  -3363.451400  63081.039253 999999.999999
*  2023  1 30  3 21  0.00000000
PL64  -5780.364941   -802.603991  -3646.611776   3178.835525
VL64 -40302.159317  -2891.151177  64457.406031 999999.999999
*  2023  1 30  3 21 30.00000000
PL64  -5898.101304   -810.576354  -3451.263436   3179.294909
VL64 -38181.183928  -2424.810628  65762.880751 999999.999999
*  2023  1 30  3 22  0.00000000
PL64  -6009.407829   -817.159523  -3252.106851   3179.754275
VL64 -36015.995302  -1965.138375  66995.997994 999999.999999
*  2023  1 30  3 22 30.00000000
PL64  -6114.155454   -822.374545  -3049.361196   3180.213682
VL64 -33808.986761  -1512.825866  68155.370426 999999.999999
*  2023  1 30  3 23  0.00000000
PL64  -6212.222374   -826.244512  -2843.249683   3180.673237
VL64 -31562.603928  -1068.546638  69239.691320 999999.999999
*  2023  1 30  3 23 30.00000000
PL64  -6303.494196   -828.794513  -2633.999326   3181.132997
VL64 -29279.341059   -632.955052  70247.737029 999999.999999
*  2023  1 30  3 24  0.00000000
PL64  -6387.864078   -830.051565  -2421.840679   3181.592622
VL64 -26961.736985   -206.685244  71178.367474 999999.999999
*  2023  1 30  3 24 30.00000000
PL64  -6465.232857   -830.044561  -2207.007595   3182.051983
VL64 -24612.373493    209.648731  72030.526075 999999.999999
*  2023  1 30  3 25  0.00000000
PL64  -6535.509182   -828.804203  -1989.736968   3182.511375
VL64 -22233.874787    615.453392  72803.242122 999999.999999
*  2023  1 30  3 25 30.00000000
PL64  -6598.609633   -826.362942  -1770.268470   3182.970887
VL64 -19828.904287   1010.157627  73495.634339 999999.999999
*  2023  1 30  3 26  0.00000000
PL64  -6654.458833   -822.754905  -1548.844279   3183.430247
VL64 -17400.159684   1393.214742  74106.912449 999999.999999
*  2023  1 30  3 26 30.00000000
PL64  -6702.989544   -818.015822  -1325.708811   3183.889605
VL64 -14950.368996   1764.103710  74636.377614 999999.999999
*  2023  1 30  3 27  0.00000000
PL64  -6744.142755   -812.182947  -1101.108436   3184.349001
VL64 -12482.287149   2122.329289  75083.422998 999999.999999
*  2023  1 30  3 27 30.00000000
PL64  -6777.867754   -805.294980   -875.291210   3184.808485
VL64  -9998.692472   2467.422427  75447.534479 999999.999999
*  2023  1 30  3 28  0.00000000
PL64  -6804.122194   -797.391988   -648.506588   3185.267940
VL64  -7502.382735   2798.941039  75728.290903 999999.999999
*  2023  1 30  3 28 30.00000000
PL64  -6822.872149   -788.515324   -421.005152   3185.727499
VL64  -4996.172248   3116.470296  75925.363224 999999.999999
*  2023  1 30  3 29  0.00000000
PL64  -6834.092156   -778.707544   -193.038332   3186.187156
VL64  -2482.890385   3419.622720  76038.515088 999999.999999
*  2023  1 30  3 29 30.00000000
PL64  -6837.765261   -768.012325     35.141873   3186.646618
VL64     34.621505   3708.038508  76067.604694 999999.999999
*  2023  1 30  3 30  0.00000000
PL64  -6833.883046   -756.474382    263.283184   3187.106140
VL64   2553.514306   3981.386030  76012.585524 999999.999999
*  2023  1 30  3 30 30.00000000
PL64  -6822.445647   -744.139381    491.133323   3187.565647
VL64   5070.934797   4239.362393  75873.506407 999999.999999
*  2023  1 30  3 31  0.00000000
PL64  -6803.461763   -731.053853    718.440304   3188.024623
VL64   7584.029387   4481.694015  75650.511859 999999.999999
EOF
